P/2010 H5 (Scotti),e,14.0709,24.8109,175.3434,7.155736,0.0514900,0.15411198,191.8222,06/25.0/2020,2000,g 13.0,2.0
# From MPC 98558
P/2010 J3 (McMillan),e,13.2912,106.4040,157.5696,8.967780,0.0367009,0.72753289,131.6395,06/25.0/2020,2000,g 11.0,4.0
# From MPC 84315
P/2010 JC81 (WISE),e,38.6906,30.8379,12.4555,8.112650,0.0426540,0.77642002,143.1215,06/25.0/2020,2000,g  9.0,4.0
# From MPC 74248
P/2010 T2 (PANSTARRS),e,7.9375,59.1964,353.9757,5.501202,0.0763867,0.32167711,255.1337,06/25.0/2020,2000,g 11.5,4.0
# From MPC 98558
P/2010 TO20 (LINEAR-Grauer),e,2.4794,43.3004,266.7536,5.827811,0.0700561,0.05419886,298.5098,06/25.0/2020,2000,g  9.0,4.0
# From MPC 82316
P/2010 U1 (Boattini),e,8.2138,280.7219,85.8623,6.513935,0.0592842,0.24763252,225.7768,06/25.0/2020,2000,g  9.5,4.0
# From MPC119994
C/2010 U3 (Boattini),e,55.5163,43.0440,88.0779,2633,0.0000073,0.99679242,0.0000,02/26.1531/2019,2000,g  1.0,4.0
# From MPC 79021
P/2010 UH55 (Spacewatch),e,8.0512,233.0379,225.1863,6.649442,0.0574813,0.56369377,192.9145,06/25.0/2020,2000,g 11.0,4.0
# From MPC 75009
P/2010 WK (LINEAR),e,11.4000,11.3111,41.0074,5.759152,0.0713126,0.68962637,253.8143,06/25.0/2020,2000,g 14.5,2.0
# From MPC 82317
P/2011 A2 (Scotti),e,4.4753,54.6740,94.5482,3.104796,0.1801584,0.49938091,265.4644,06/25.0/2020,2000,g 16.5,4.0
# From MPC 84021
P/2011 C2 (Gibbs),e,10.8859,12.1210,161.0848,7.414111,0.0488220,0.26916268,151.0456,06/25.0/2020,2000,g  9.0,4.0
# From MPC 79866
P/2011 FR143 (Lemmon),e,15.9928,190.9487,350.1603,6.854996,0.0549153,0.45133788,186.6798,06/25.0/2020,2000,g 14.0,2.0
# From MPC 82317
P/2011 JB15 (Spacewatch-Boattini),e,19.1460,153.6066,110.9431,7.351858,0.0494434,0.31839801,152.0212,06/25.0/2020,2000,g  9.0,4.0
# From MPEC 2020-AA5
C/2011 KP36 (Spacewatch),e,18.9831,173.3147,180.6179,38.77849,0.0040815,0.87418864,6.0801,06/25.0/2020,2000,g  4.5,4.0
# From MPC 87913
P/2011 N1 (ASH),e,35.7061,77.6086,330.3469,6.251136,0.0630617,0.54339107,186.6166,06/25.0/2020,2000,g 11.5,4.0
# From MPC 75714
P/2011 NO1 (Elenin),e,15.2491,295.7880,263.8461,5.522259,0.0759502,0.77508184,261.2817,06/25.0/2020,2000,g 15.0,4.0
# From MPC 82318
P/2011 P1 (McNaught),e,5.6563,4.2433,348.8689,7.470842,0.0482669,0.32659116,175.2756,06/25.0/2020,2000,g  9.0,4.0
# From MPC 77806
P/2011 Q3 (McNaught),e,6.0560,32.0242,310.9619,4.970739,0.0889350,0.53241256,290.1342,06/25.0/2020,2000,g 13.5,4.0
# From MPC 90269
P/2011 R3 (Novichonok-Gerke),e,19.2466,189.7163,224.9997,4.781064,0.0942795,0.27159004,282.1548,06/25.0/2020,2000,g 11.0,4.0
# From MPC 98558
P/2011 S1 (Gibbs),e,2.6834,218.9182,192.5680,8.590298,0.0391464,0.19993765,83.9324,06/25.0/2020,2000,g  8.0,4.0
# From MPC115880
P/2011 U2 (Bressi),e,9.9541,263.5020,153.2735,4.911084,0.0905603,0.13312815,257.6089,06/25.0/2020,2000,g 10.0,4.0
# From MPC 79022
P/2011 UA134 (Spacewatch-PANSTARRS),e,10.4455,40.4386,32.4745,5.602294,0.0743285,0.62929528,233.6194,06/25.0/2020,2000,g 17.5,4.0
# From MPC 77406
P/2011 V1 (Boattini),e,7.3779,46.8586,269.2207,3.854101,0.1302625,0.55062773,82.3162,06/25.0/2020,2000,g 15.5,4.0
# From MPC 82718
P/2011 W1 (PANSTARRS),e,3.7186,161.7901,282.7269,4.659829,0.0979826,0.28690655,301.9194,06/25.0/2020,2000,g 11.5,4.0
# From MPC 79342
P/2011 Y2 (Boattini),e,6.3713,309.3694,131.9484,6.239688,0.0632353,0.70916636,191.7076,06/25.0/2020,2000,g 15.0,4.0
# From MPC 94669
P/2012 B1 (PANSTARRS),e,7.6172,36.1939,162.6008,6.526465,0.0591136,0.41011117,149.5853,06/25.0/2020,2000,g  9.0,4.0
# From MPC 78590
P/2012 C3 (PANSTARRS),e,9.0920,135.3677,344.9542,9.748681,0.0323806,0.63011148,359.9758,10/06.0/2011,2000,g 13.0,4.0
# From MPC 84931
P/2012 F2 (PANSTARRS),e,14.7301,227.0682,33.2305,6.327493,0.0619237,0.54299050,162.8322,06/25.0/2020,2000,g 12.0,4.0
# From MPC 79344
P/2012 G1 (PANSTARRS),e,11.6925,282.5440,286.1149,4.172871,0.1156250,0.38072240,359.9500,06/01.0/2012,2000,g 15.0,4.0
# From MPC 80898
P/2012 K3 (Gibbs),e,13.1946,125.8090,172.1242,3.624153,0.1428546,0.42350286,44.6466,06/25.0/2020,2000,g 15.0,4.0
# From MPC112389
C/2012 LP26 (Palomar),h,08/18.8102/2015,25.3441,153.9290,145.3433,1.003554,6.544199,2000,6.5,4.0
# From MPC 88326
P/2012 NJ (La Sagra),e,84.6474,315.5546,338.3152,8.457375,0.0400729,0.84747011,117.5845,06/25.0/2020,2000,g 14.5,4.0
# From MPC 81470
P/2012 O1 (McNaught),e,7.4334,91.9849,238.2061,3.539657,0.1480002,0.59450860,71.1317,06/25.0/2020,2000,g 17.5,4.0
# From MPC 80899
P/2012 O2 (McNaught),e,24.4865,120.6786,183.3831,3.622207,0.1429698,0.53283518,59.4610,06/25.0/2020,2000,g 17.0,4.0
# From MPC 82720
P/2012 O3 (McNaught),e,16.6127,336.4067,344.6919,4.575886,0.1006911,0.64686628,289.1352,06/25.0/2020,2000,g 16.5,4.0
# From MPC 82720
P/2012 S2 (La Sagra),e,8.6874,51.1928,312.5087,4.410140,0.1064205,0.69111502,307.4449,06/25.0/2020,2000,g 17.0,4.0
# From MPC 82720
P/2012 SB6 (Lemmon),e,10.9287,8.2098,14.3978,3.825407,0.1317309,0.40480963,0.7258,06/25.0/2020,2000,g 14.0,4.0
# From MPC 82320
P/2012 T2 (PANSTARRS),e,12.5550,73.7341,310.4354,5.738964,0.0716892,0.16047695,188.1275,06/25.0/2020,2000,g 10.0,4.0
# From MPC 80900
P/2012 T3 (PANSTARRS),e,9.5688,114.4083,195.4293,6.152840,0.0645789,0.61714661,192.2880,06/25.0/2020,2000,g 15.0,4.0
# From MPC 87914
P/2012 TK8 (Tenagra),e,6.3405,288.9705,127.8179,4.130786,0.1173964,0.27434716,302.7974,06/25.0/2020,2000,g 13.0,4.0
# From MPC 82720
P/2012 U2 (PANSTARRS),e,10.7468,185.2652,228.3483,7.144329,0.0516133,0.49753431,143.8179,06/25.0/2020,2000,g 12.5,4.0
# From MPC 84024
P/2012 US27 (Siding Spring),e,39.3244,49.1688,0.8284,5.166174,0.0839364,0.64728944,227.3049,06/25.0/2020,2000,g 13.5,4.0
# From MPC 82721
P/2012 WA34 (Lemmon-PANSTARRS),e,6.1207,94.4888,352.9106,4.769203,0.0946314,0.34137355,255.7455,06/25.0/2020,2000,g 13.5,4.0
# From MPC 84024
P/2013 A2 (Scotti),e,3.3613,355.8158,134.5540,4.013061,0.1226000,0.45433541,331.0874,06/25.0/2020,2000,g 15.5,4.0
# From MPC 82721
P/2013 AL76 (Catalina),e,144.7979,145.9446,27.1357,6.498174,0.0595000,0.68608505,163.7453,06/25.0/2020,2000,g 16.0,4.0
# From MPC115880
C/2013 C2 (Tenagra),e,21.3382,247.5297,309.5467,16.01339,0.0153808,0.42811180,26.8573,06/25.0/2020,2000,g  4.0,4.0
# From MPC 88695
P/2013 EW90 (Tenagra),e,31.7868,160.2983,346.3679,4.116300,0.1180167,0.19493565,332.1608,06/25.0/2020,2000,g 12.0,4.0
# From MPC 91612
P/2013 G1 (Kowalski),e,5.4696,221.4190,51.3438,6.885698,0.0545484,0.51339230,130.1181,06/25.0/2020,2000,g 11.0,4.0
# From MPC 84025
P/2013 G4 (PANSTARRS),e,5.9161,339.6486,214.7284,4.438788,0.1053919,0.40973977,283.6451,06/25.0/2020,2000,g 15.0,4.0
# From MPC 91613
P/2013 J2 (McNaught),e,15.5362,289.4301,37.7133,6.223643,0.0634800,0.65736213,158.3578,06/25.0/2020,2000,g 13.0,4.0
# From MPC 87066
P/2013 J4 (PANSTARRS),e,5.0352,84.0011,118.7706,2.475100,0.2531133,0.23099371,359.9443,11/04.0/2013,2000,g 14.0,4.0
# From MPC 86229
P/2013 N3 (PANSTARRS),e,2.1727,17.5100,323.8288,7.390702,0.0490541,0.59289378,113.9453,06/25.0/2020,2000,g 13.0,4.0
# From MPC 85834
P/2013 N5 (PANSTARRS),e,23.4079,187.1732,176.8800,6.800190,0.0555805,0.73155501,141.7749,06/25.0/2020,2000,g 17.0,4.0
# From MPC 87479
P/2013 O2 (PANSTARRS),e,13.3173,207.1589,214.2267,3.790612,0.1335488,0.44684159,315.7183,06/25.0/2020,2000,g 14.0,4.0
# From MPC 85834
P/2013 P1 (PANSTARRS),e,18.7179,160.6364,138.0510,8.565935,0.0393135,0.60618864,105.0633,06/25.0/2020,2000,g 12.0,4.0
# From MPC 94671
P/2013 R3 (Catalina-PANSTARRS),e,0.8653,342.0010,11.1488,3.033998,0.1865009,0.27495993,105.6325,06/25.0/2020,2000,g 14.0,4.0
# From unp
P/2013 R3-A (Catalina-PANSTARRS),e,0.8647,341.9679,11.1878,3.033857,0.1865140,0.27492929,105.6627,06/25.0/2020,2000,g  9.0,4.0
# From MPEC 2015-M77
P/2013 R3-B (Catalina-PANSTARRS),e,0.8660,342.0237,11.1227,3.034075,0.1864939,0.27497502,105.6163,06/25.0/2020,2000,g  9.0,4.0
# From MPC 85835
P/2013 T1 (PANSTARRS),e,24.2647,10.0947,346.0662,5.862472,0.0694357,0.62332827,175.0267,06/25.0/2020,2000,g 16.5,4.0
# From MPC 86643
P/2013 T2 (Schwartz),e,9.4560,0.8223,345.4588,3.488462,0.1512701,0.50109753,31.3805,06/25.0/2020,2000,g 16.0,4.0
# From MPC 88696
P/2013 TL117 (Lemmon),e,9.3649,3.3153,112.2501,3.609357,0.1437340,0.68916821,333.8131,06/25.0/2020,2000,g 17.5,4.0
# From MPC110080
C/2013 US10 (Catalina),h,11/16.6545/2015,148.7827,186.3713,340.5824,1.000624,0.822042,2000,4.4,4.0
# From MPC111767
C/2013 V4 (Catalina),e,67.8805,55.6152,40.3373,3418,0.0000049,0.99848393,0.0000,10/05.5556/2015,2000,g  6.0,4.0
# From MPC 91613
P/2013 W1 (PANSTARRS),e,4.6955,117.8479,1.3000,3.490844,0.1511153,0.59282894,348.3161,06/25.0/2020,2000,g 17.5,4.0
# From MPC111767
C/2013 X1 (PANSTARRS),h,04/19.5103/2016,163.1930,131.5769,165.1407,1.000379,1.321408,2000,10.5,2.0
# From MPC101095
P/2013 YG46 (Spacewatch),e,7.8561,48.8793,242.4698,3.276571,0.1661785,0.45491760,206.3070,06/25.0/2020,2000,g 10.0,4.0
# From MPC 89728
P/2014 A2 (Hill),e,24.5469,106.6278,356.2732,5.925601,0.0683291,0.64571820,166.8820,06/25.0/2020,2000,g 15.0,4.0
# From MPC 92981
P/2014 A3 (PANSTARRS),e,13.6806,230.2780,212.5709,4.634969,0.0987720,0.24606590,258.6788,06/25.0/2020,2000,g 12.0,4.0
# From MPC108592
C/2014 A4 (SONEAR),e,121.3787,29.6718,356.5800,2734,0.0000069,0.99847326,0.0000,09/03.9898/2015,2000,g  6.0,4.0
# From MPC119994
C/2014 B1 (Schwartz),e,28.4019,161.4076,345.8143,23865,0.0000003,0.99959960,0.0000,09/09.6528/2017,2000,g  4.0,4.0
# From MPC102095
P/2014 C1 (TOTAS),e,2.6833,167.7790,24.1207,3.042663,0.1857049,0.44719194,81.4647,06/25.0/2020,2000,g 15.5,4.0
# From MPC 91614
P/2014 E1 (Larson),e,15.9762,39.0365,186.0118,3.712358,0.1377937,0.42358619,306.2358,06/25.0/2020,2000,g 14.0,4.0
# From MPC 94280
C/2014 F3 (Sheppard-Trujillo),e,6.5496,326.8659,2.5515,16.12137,0.0152265,0.64656338,355.1527,06/25.0/2020,2000,g  6.0,4.0
# From MPC 98560
P/2014 L2 (NEOWISE),e,5.1960,149.3520,182.6307,6.303715,0.0622743,0.64795378,135.0697,06/25.0/2020,2000,g 12.0,4.0
# From MPC 90769
P/2014 L3 (Hill),e,6.2778,115.4695,178.6165,8.164707,0.0422467,0.77396785,92.3414,06/25.0/2020,2000,g 16.0,4.0
# From MPC103844
